IRIDIUM 171             
1 43929U 19002H   25133.52725460  .00000190  00000+0  60863-4 0  9990
2 43929  86.3996 160.8965 0002668  91.0215 269.1287 14.34219638331671
IRIDIUM 170             
1 43930U 19002J   25133.51507420  .00000861  00000+0  13258-3 0  9995
2 43930  86.6112 160.6633 0002625 100.4565 259.6948 14.72251383340451
IRIDIUM 167             
1 43931U 19002K   25133.52091279  .00000117  00000+0  34724-4 0  9993
2 43931  86.3987 160.6564 0002775  97.3442 262.8069 14.34218981331675
IRIDIUM 181             
1 56726U 23068S   25133.49183774  .00000403  00000+0  11379-3 0  9992
2 56726  86.4545 223.7121 0002834  88.0440 272.1085 14.43316052104783
IRIDIUM 177             
1 56727U 23068T   25133.32385884  .00000569  00000+0  71301-4 0  9996
2 56727  86.1980 158.6734 0002633  93.2492 266.9031 14.80240440107213
IRIDIUM 174             
1 56728U 23068U   25133.57113579  .00000930  00000+0  14190-3 0  9998
2 56728  86.6115 160.7469 0002489 105.1135 255.0358 14.72748370107222
IRIDIUM 178             
1 56729U 23068V   25133.44816917  .00001261  00000+0  16257-3 0  9995
2 56729  86.6595 192.3232 0002258  89.8547 270.2933 14.80236206107231
IRIDIUM 179             
1 56730U 23068W   25133.23998906  .00001016  00000+0  13026-3 0  9992
2 56730  86.6841 200.1744 0002498  99.0940 261.0564 14.80242882107201
